[
  {
    "OBJECT_NAME": "STARLINK-5842",
    "OBJECT_ID": "23064AV",
    "EPOCH": "2025-11-11T06:21:33.509088",
    "MEAN_MOTION": 14.98323067,
    "ECCENTRICITY": 0.0003032,
    "INCLINATION": 70.0011,
    "RA_OF_ASC_NODE": 43.0465,
    "ARG_OF_PERICENTER": 265.3342,
    "MEAN_ANOMALY": 94.747,
    "EPHEMERIS_TYPE": 0,
    "CLASSIFICATION_TYPE": "U",
    "NORAD_CAT_ID": 56491,
    "ELEMENT_SET_NO": 999,
    "REV_AT_EPOCH": 13849,
    "BSTAR": 1.7742e-05,
    "MEAN_MOTION_DOT": 1.19e-06,
    "MEAN_MOTION_DDOT": 0.0,
    "TLE_LINE1": "1 56491U 23064AV  25315.26497117  .00000119  00000+0  17742-4 0  9998",
    "TLE_LINE2": "2 56491  70.0011  43.0465 0003032 265.3342  94.7470 14.98323067138490",
    "COMMENT": "Grouped by shell and plane from TLE"
  },
  {
    "OBJECT_NAME": "STARLINK-5846",
    "OBJECT_ID": "23064AW",
    "EPOCH": "2025-11-11T06:15:32.165280",
    "MEAN_MOTION": 14.98333211,
    "ECCENTRICITY": 0.00032,
    "INCLINATION": 70.0005,
    "RA_OF_ASC_NODE": 43.0314,
    "ARG_OF_PERICENTER": 269.4065,
    "MEAN_ANOMALY": 90.6728,
    "EPHEMERIS_TYPE": 0,
    "CLASSIFICATION_TYPE": "U",
    "NORAD_CAT_ID": 56492,
    "ELEMENT_SET_NO": 999,
    "REV_AT_EPOCH": 13849,
    "BSTAR": 6.819699999999999e-07,
    "MEAN_MOTION_DOT": -8.5e-07,
    "MEAN_MOTION_DDOT": 0.0,
    "TLE_LINE1": "1 56492U 23064AW  25315.26078895 -.00000085  00000+0  68197-6 0  9992",
    "TLE_LINE2": "2 56492  70.0005  43.0314 0003200 269.4065  90.6728 14.98333211138494",
    "COMMENT": "Grouped by shell and plane from TLE"
  },
  {
    "OBJECT_NAME": "STARLINK-5530",
    "OBJECT_ID": "23064AY",
    "EPOCH": "2025-11-11T06:15:46.545696",
    "MEAN_MOTION": 14.9833956,
    "ECCENTRICITY": 0.0003166,
    "INCLINATION": 70.0005,
    "RA_OF_ASC_NODE": 43.0325,
    "ARG_OF_PERICENTER": 269.2045,
    "MEAN_ANOMALY": 90.8752,
    "EPHEMERIS_TYPE": 0,
    "CLASSIFICATION_TYPE": "U",
    "NORAD_CAT_ID": 56494,
    "ELEMENT_SET_NO": 999,
    "REV_AT_EPOCH": 13849,
    "BSTAR": 6.518800000000001e-06,
    "MEAN_MOTION_DOT": -1.5e-07,
    "MEAN_MOTION_DDOT": 0.0,
    "TLE_LINE1": "1 56494U 23064AY  25315.26095539 -.00000015  00000+0  65188-5 0  9997",
    "TLE_LINE2": "2 56494  70.0005  43.0325 0003166 269.2045  90.8752 14.98339560138497",
    "COMMENT": "Grouped by shell and plane from TLE"
  },
  {
    "OBJECT_NAME": "STARLINK-5529",
    "OBJECT_ID": "23064AZ",
    "EPOCH": "2025-11-11T07:39:38.836800",
    "MEAN_MOTION": 14.98332391,
    "ECCENTRICITY": 0.0002912,
    "INCLINATION": 70.001,
    "RA_OF_ASC_NODE": 42.8336,
    "ARG_OF_PERICENTER": 266.6024,
    "MEAN_ANOMALY": 93.4802,
    "EPHEMERIS_TYPE": 0,
    "CLASSIFICATION_TYPE": "U",
    "NORAD_CAT_ID": 56495,
    "ELEMENT_SET_NO": 999,
    "REV_AT_EPOCH": 13850,
    "BSTAR": 5.5829e-05,
    "MEAN_MOTION_DOT": 5.73e-06,
    "MEAN_MOTION_DDOT": 0.0,
    "TLE_LINE1": "1 56495U 23064AZ  25315.31919950  .00000573  00000+0  55829-4 0  9994",
    "TLE_LINE2": "2 56495  70.0010  42.8336 0002912 266.6024  93.4802 14.98332391138501",
    "COMMENT": "Grouped by shell and plane from TLE"
  },
  {
    "OBJECT_NAME": "STARLINK-5526",
    "OBJECT_ID": "23064BA",
    "EPOCH": "2025-11-11T07:33:38.208384",
    "MEAN_MOTION": 14.98334528,
    "ECCENTRICITY": 0.0003229,
    "INCLINATION": 70.0004,
    "RA_OF_ASC_NODE": 42.8184,
    "ARG_OF_PERICENTER": 267.4471,
    "MEAN_ANOMALY": 92.6318,
    "EPHEMERIS_TYPE": 0,
    "CLASSIFICATION_TYPE": "U",
    "NORAD_CAT_ID": 56496,
    "ELEMENT_SET_NO": 999,
    "REV_AT_EPOCH": 13850,
    "BSTAR": 7.5777e-05,
    "MEAN_MOTION_DOT": 8.11e-06,
    "MEAN_MOTION_DDOT": 0.0,
    "TLE_LINE1": "1 56496U 23064BA  25315.31502556  .00000811  00000+0  75777-4 0  9994",
    "TLE_LINE2": "2 56496  70.0004  42.8184 0003229 267.4471  92.6318 14.98334528138500",
    "COMMENT": "Grouped by shell and plane from TLE"
  },
  {
    "OBJECT_NAME": "STARLINK-5527",
    "OBJECT_ID": "23064BB",
    "EPOCH": "2025-11-11T07:27:51.683904",
    "MEAN_MOTION": 14.98335391,
    "ECCENTRICITY": 0.0003017,
    "INCLINATION": 70.0003,
    "RA_OF_ASC_NODE": 42.8053,
    "ARG_OF_PERICENTER": 264.1367,
    "MEAN_ANOMALY": 95.9448,
    "EPHEMERIS_TYPE": 0,
    "CLASSIFICATION_TYPE": "U",
    "NORAD_CAT_ID": 56497,
    "ELEMENT_SET_NO": 999,
    "REV_AT_EPOCH": 13850,
    "BSTAR": 9.953300000000001e-05,
    "MEAN_MOTION_DOT": 1.095e-05,
    "MEAN_MOTION_DDOT": 0.0,
    "TLE_LINE1": "1 56497U 23064BB  25315.31101486  .00001095  00000+0  99533-4 0  9993",
    "TLE_LINE2": "2 56497  70.0003  42.8053 0003017 264.1367  95.9448 14.98335391138507",
    "COMMENT": "Grouped by shell and plane from TLE"
  },
  {
    "OBJECT_NAME": "STARLINK-5522",
    "OBJECT_ID": "23064BC",
    "EPOCH": "2025-11-11T06:09:31.421952",
    "MEAN_MOTION": 14.98330574,
    "ECCENTRICITY": 0.0003498,
    "INCLINATION": 70.0002,
    "RA_OF_ASC_NODE": 43.0156,
    "ARG_OF_PERICENTER": 269.584,
    "MEAN_ANOMALY": 90.4918,
    "EPHEMERIS_TYPE": 0,
    "CLASSIFICATION_TYPE": "U",
    "NORAD_CAT_ID": 56498,
    "ELEMENT_SET_NO": 999,
    "REV_AT_EPOCH": 13849,
    "BSTAR": 0.00010489,
    "MEAN_MOTION_DOT": 1.159e-05,
    "MEAN_MOTION_DDOT": 0.0,
    "TLE_LINE1": "1 56498U 23064BC  25315.25661368  .00001159  00000+0  10489-3 0  9990",
    "TLE_LINE2": "2 56498  70.0002  43.0156 0003498 269.5840  90.4918 14.98330574138490",
    "COMMENT": "Grouped by shell and plane from TLE"
  },
  {
    "OBJECT_NAME": "STARLINK-30288",
    "OBJECT_ID": "23129A",
    "EPOCH": "2025-11-11T06:26:30.297408",
    "MEAN_MOTION": 15.02600736,
    "ECCENTRICITY": 0.000162,
    "INCLINATION": 43.0049,
    "RA_OF_ASC_NODE": 43.5124,
    "ARG_OF_PERICENTER": 284.3678,
    "MEAN_ANOMALY": 75.6984,
    "EPHEMERIS_TYPE": 0,
    "CLASSIFICATION_TYPE": "U",
    "NORAD_CAT_ID": 57698,
    "ELEMENT_SET_NO": 999,
    "REV_AT_EPOCH": 12284,
    "BSTAR": 0.0,
    "MEAN_MOTION_DOT": -9.436e-05,
    "MEAN_MOTION_DDOT": 0.0,
    "TLE_LINE1": "1 57698U 23129A   25315.26840622 -.00009436  00000+0 -68319-3 0  9991",
    "TLE_LINE2": "2 57698  43.0049  43.5124 0001620 284.3678  75.6984 15.02600736122849",
    "COMMENT": "Grouped by shell and plane from TLE"
  },
  {
    "OBJECT_NAME": "STARLINK-30332",
    "OBJECT_ID": "23129C",
    "EPOCH": "2025-11-11T06:21:41.806080",
    "MEAN_MOTION": 15.02545292,
    "ECCENTRICITY": 0.0001253,
    "INCLINATION": 43.0033,
    "RA_OF_ASC_NODE": 43.4871,
    "ARG_OF_PERICENTER": 260.3105,
    "MEAN_ANOMALY": 99.7596,
    "EPHEMERIS_TYPE": 0,
    "CLASSIFICATION_TYPE": "U",
    "NORAD_CAT_ID": 57700,
    "ELEMENT_SET_NO": 999,
    "REV_AT_EPOCH": 12270,
    "BSTAR": 0.00017169,
    "MEAN_MOTION_DOT": 2.117e-05,
    "MEAN_MOTION_DDOT": 0.0,
    "TLE_LINE1": "1 57700U 23129C   25315.26506720  .00002117  00000+0  17169-3 0  9997",
    "TLE_LINE2": "2 57700  43.0033  43.4871 0001253 260.3105  99.7596 15.02545292122701",
    "COMMENT": "Grouped by shell and plane from TLE"
  },
  {
    "OBJECT_NAME": "STARLINK-30345",
    "OBJECT_ID": "23129D",
    "EPOCH": "2025-11-11T07:38:25.536768",
    "MEAN_MOTION": 15.0253909,
    "ECCENTRICITY": 0.0001426,
    "INCLINATION": 43.0044,
    "RA_OF_ASC_NODE": 43.8881,
    "ARG_OF_PERICENTER": 280.8719,
    "MEAN_ANOMALY": 79.1963,
    "EPHEMERIS_TYPE": 0,
    "CLASSIFICATION_TYPE": "U",
    "NORAD_CAT_ID": 57701,
    "ELEMENT_SET_NO": 999,
    "REV_AT_EPOCH": 12270,
    "BSTAR": 7.600400000000001e-05,
    "MEAN_MOTION_DOT": 8.23e-06,
    "MEAN_MOTION_DDOT": 0.0,
    "TLE_LINE1": "1 57701U 23129D   25315.31835112  .00000823  00000+0  76004-4 0  9990",
    "TLE_LINE2": "2 57701  43.0044  43.8881 0001426 280.8719  79.1963 15.02539090122708",
    "COMMENT": "Grouped by shell and plane from TLE"
  },
  {
    "OBJECT_NAME": "STARLINK-30333",
    "OBJECT_ID": "23129E",
    "EPOCH": "2025-11-11T05:53:05.646336",
    "MEAN_MOTION": 15.02538963,
    "ECCENTRICITY": 0.0001432,
    "INCLINATION": 43.0023,
    "RA_OF_ASC_NODE": 44.1998,
    "ARG_OF_PERICENTER": 273.2606,
    "MEAN_ANOMALY": 86.8073,
    "EPHEMERIS_TYPE": 0,
    "CLASSIFICATION_TYPE": "U",
    "NORAD_CAT_ID": 57702,
    "ELEMENT_SET_NO": 999,
    "REV_AT_EPOCH": 12283,
    "BSTAR": 0.00015393,
    "MEAN_MOTION_DOT": 1.876e-05,
    "MEAN_MOTION_DDOT": 0.0,
    "TLE_LINE1": "1 57702U 23129E   25315.24520424  .00001876  00000+0  15393-3 0  9992",
    "TLE_LINE2": "2 57702  43.0023  44.1998 0001432 273.2606  86.8073 15.02538963122836",
    "COMMENT": "Grouped by shell and plane from TLE"
  },
  {
    "OBJECT_NAME": "STARLINK-30336",
    "OBJECT_ID": "23129F",
    "EPOCH": "2025-11-11T07:33:37.056672",
    "MEAN_MOTION": 15.02525468,
    "ECCENTRICITY": 0.0001391,
    "INCLINATION": 43.0079,
    "RA_OF_ASC_NODE": 43.8674,
    "ARG_OF_PERICENTER": 274.0269,
    "MEAN_ANOMALY": 86.0415,
    "EPHEMERIS_TYPE": 0,
    "CLASSIFICATION_TYPE": "U",
    "NORAD_CAT_ID": 57703,
    "ELEMENT_SET_NO": 999,
    "REV_AT_EPOCH": 12270,
    "BSTAR": 0.00030930000000000004,
    "MEAN_MOTION_DOT": 3.976e-05,
    "MEAN_MOTION_DDOT": 0.0,
    "TLE_LINE1": "1 57703U 23129F   25315.31501223  .00003976  00000+0  30930-3 0  9994",
    "TLE_LINE2": "2 57703  43.0079  43.8674 0001391 274.0269  86.0415 15.02525468122707",
    "COMMENT": "Grouped by shell and plane from TLE"
  },
  {
    "OBJECT_NAME": "STARLINK-30346",
    "OBJECT_ID": "23129G",
    "EPOCH": "2025-11-11T07:19:14.021760",
    "MEAN_MOTION": 15.02539392,
    "ECCENTRICITY": 0.0001227,
    "INCLINATION": 43.0027,
    "RA_OF_ASC_NODE": 43.7856,
    "ARG_OF_PERICENTER": 262.5977,
    "MEAN_ANOMALY": 97.4726,
    "EPHEMERIS_TYPE": 0,
    "CLASSIFICATION_TYPE": "U",
    "NORAD_CAT_ID": 57704,
    "ELEMENT_SET_NO": 999,
    "REV_AT_EPOCH": 12270,
    "BSTAR": 0.00019738,
    "MEAN_MOTION_DOT": 2.464e-05,
    "MEAN_MOTION_DDOT": 0.0,
    "TLE_LINE1": "1 57704U 23129G   25315.30502340  .00002464  00000+0  19738-3 0  9999",
    "TLE_LINE2": "2 57704  43.0027  43.7856 0001227 262.5977  97.4726 15.02539392122700",
    "COMMENT": "Grouped by shell and plane from TLE"
  }
]